[{"OBJECT_NAME":"STARLINK-2188","OBJECT_ID":"2021-041L","EPOCH":"2026-03-09T12:51:46.393632","MEAN_MOTION":15.30194145,"ECCENTRICITY":0.00016469,"INCLINATION":53.1608,"RA_OF_ASC_NODE":127.4161,"ARG_OF_PERICENTER":91.3833,"MEAN_ANOMALY":268.7357,"EPHEMERIS_TYPE":0,"CLASSIFICATION_TYPE":"U","NORAD_CAT_ID":48563,"ELEMENT_SET_NO":999,"REV_AT_EPOCH":26525,"BSTAR":-7.385512e-6,"MEAN_MOTION_DOT":-5.78e-6,"MEAN_MOTION_DDOT":0},{"OBJECT_NAME":"CERISE","OBJECT_ID":"1995-033B","EPOCH":"2026-03-09T23:11:27.589056","MEAN_MOTION":15.32047731,"ECCENTRICITY":0.00057118,"INCLINATION":98.325,"RA_OF_ASC_NODE":273.5192,"ARG_OF_PERICENTER":211.8754,"MEAN_ANOMALY":148.214,"EPHEMERIS_TYPE":0,"CLASSIFICATION_TYPE":"U","NORAD_CAT_ID":23606,"ELEMENT_SET_NO":999,"REV_AT_EPOCH":66468,"BSTAR":0.00062940675,"MEAN_MOTION_DOT":0.00019422,"MEAN_MOTION_DDOT":0}]
